IRIDIUM 63              
1 25286U 98021B   26026.82692052  .00000762  00000+0  25159-3 0  9992
2 25286  86.4011 348.2944 0001953  85.9719 274.1702 14.36784254455951
IRIDIUM 69              
1 25319U 98026A   26026.84369437  .00001038  00000+0  31538-3 0  9999
2 25319  86.3993   0.8663 0003502  43.7329 316.4147 14.41268735455271
IRIDIUM 71              
1 25320U 98026B   26026.61922565  .00000853  00000+0  25761-3 0  9998
2 25320  86.3998 355.6321 0004256  79.0799 281.0880 14.41359822455774
IRIDIUM 73              
1 25344U 98032C   26026.77940825  .00001051  00000+0  25492-3 0  9999
2 25344  86.4438 311.8542 0001937  68.1246 292.0166 14.52068378463007
IRIDIUM 82              
1 25467U 98051A   26026.42375972  .00065191  00000+0  10294-2 0  9991
2 25467  86.3604 358.5315 0057894 154.6064 205.8062 15.51304392458319
